[{"OBJECT_NAME":"CUTE-1 (CO-55)","OBJECT_ID":"2003-031E","EPOCH":"2026-04-26T18:08:00.880800","MEAN_MOTION":14.24302739,"ECCENTRICITY":0.0009078,"INCLINATION":98.6757,"RA_OF_ASC_NODE":125.9591,"ARG_OF_PERICENTER":342.277,"MEAN_ANOMALY":17.8091,"EPHEMERIS_TYPE":0,"CLASSIFICATION_TYPE":"U","NORAD_CAT_ID":27844,"ELEMENT_SET_NO":999,"REV_AT_EPOCH":18435,"BSTAR":0.00016208,"MEAN_MOTION_DOT":3.31e-6,"MEAN_MOTION_DDOT":0},{"OBJECT_NAME":"CUBESAT XI-IV (CO-57)","OBJECT_ID":"2003-031J","EPOCH":"2026-04-26T12:10:44.317632","MEAN_MOTION":14.23592208,"ECCENTRICITY":0.0009403,"INCLINATION":98.6789,"RA_OF_ASC_NODE":125.4683,"ARG_OF_PERICENTER":1.8754,"MEAN_ANOMALY":358.2459,"EPHEMERIS_TYPE":0,"CLASSIFICATION_TYPE":"U","NORAD_CAT_ID":27848,"ELEMENT_SET_NO":999,"REV_AT_EPOCH":18402,"BSTAR":0.00013913641,"MEAN_MOTION_DOT":2.73e-6,"MEAN_MOTION_DDOT":0},{"OBJECT_NAME":"CUBESAT XI-V","OBJECT_ID":"2005-043F","EPOCH":"2026-04-26T16:37:53.440896","MEAN_MOTION":14.72492449,"ECCENTRICITY":0.0014225,"INCLINATION":98.2925,"RA_OF_ASC_NODE":271.2553,"ARG_OF_PERICENTER":14.3495,"MEAN_ANOMALY":345.8113,"EPHEMERIS_TYPE":0,"CLASSIFICATION_TYPE":"U","NORAD_CAT_ID":28895,"ELEMENT_SET_NO":999,"REV_AT_EPOCH":9417,"BSTAR":0.00025776,"MEAN_MOTION_DOT":1.586e-5,"MEAN_MOTION_DDOT":0},{"OBJECT_NAME":"CUTE-1.7+APD II (CO-65)","OBJECT_ID":"2008-021C","EPOCH":"2026-04-26T20:45:16.032960","MEAN_MOTION":15.08956703,"ECCENTRICITY":0.0008384,"INCLINATION":97.8255,"RA_OF_ASC_NODE":97.2453,"ARG_OF_PERICENTER":190.9806,"MEAN_ANOMALY":169.124,"EPHEMERIS_TYPE":0,"CLASSIFICATION_TYPE":"U","NORAD_CAT_ID":32785,"ELEMENT_SET_NO":999,"REV_AT_EPOCH":97745,"BSTAR":0.00041321,"MEAN_MOTION_DOT":6.465e-5,"MEAN_MOTION_DDOT":0},{"OBJECT_NAME":"CANX-2","OBJECT_ID":"2008-021H","EPOCH":"2026-04-26T12:13:54.189408","MEAN_MOTION":15.05234993,"ECCENTRICITY":0.00094102,"INCLINATION":97.8603,"RA_OF_ASC_NODE":95.3094,"ARG_OF_PERICENTER":210.8637,"MEAN_ANOMALY":149.2037,"EPHEMERIS_TYPE":0,"CLASSIFICATION_TYPE":"U","NORAD_CAT_ID":32790,"ELEMENT_SET_NO":999,"REV_AT_EPOCH":97703,"BSTAR":0.00028168748,"MEAN_MOTION_DOT":3.961e-5,"MEAN_MOTION_DDOT":0},{"OBJECT_NAME":"SEEDS II (CO-66)","OBJECT_ID":"2008-021J","EPOCH":"2026-04-26T17:26:00.457152","MEAN_MOTION":15.30959981,"ECCENTRICITY":0.0004971,"INCLINATION":97.7529,"RA_OF_ASC_NODE":112.2424,"ARG_OF_PERICENTER":114.0529,"MEAN_ANOMALY":246.1231,"EPHEMERIS_TYPE":0,"CLASSIFICATION_TYPE":"U","NORAD_CAT_ID":32791,"ELEMENT_SET_NO":999,"REV_AT_EPOCH":97941,"BSTAR":0.00076219,"MEAN_MOTION_DOT":0.0002277,"MEAN_MOTION_DDOT":0},{"OBJECT_NAME":"SWISSCUBE","OBJECT_ID":"2009-051B","EPOCH":"2026-04-26T17:12:25.424352","MEAN_MOTION":14.62378414,"ECCENTRICITY":0.0007358,"INCLINATION":98.4066,"RA_OF_ASC_NODE":23.7054,"ARG_OF_PERICENTER":23.3426,"MEAN_ANOMALY":336.8108,"EPHEMERIS_TYPE":0,"CLASSIFICATION_TYPE":"U","NORAD_CAT_ID":35932,"ELEMENT_SET_NO":999,"REV_AT_EPOCH":88163,"BSTAR":0.00024105,"MEAN_MOTION_DOT":1.169e-5,"MEAN_MOTION_DDOT":0},{"OBJECT_NAME":"BEESAT-1","OBJECT_ID":"2009-051C","EPOCH":"2026-04-26T16:47:50.856288","MEAN_MOTION":14.6163331,"ECCENTRICITY":0.0006112,"INCLINATION":98.3995,"RA_OF_ASC_NODE":23.4304,"ARG_OF_PERICENTER":38.3202,"MEAN_ANOMALY":321.8431,"EPHEMERIS_TYPE":0,"CLASSIFICATION_TYPE":"U","NORAD_CAT_ID":35933,"ELEMENT_SET_NO":999,"REV_AT_EPOCH":88166,"BSTAR":0.00020802,"MEAN_MOTION_DOT":9.86e-6,"MEAN_MOTION_DDOT":0},{"OBJECT_NAME":"ITUPSAT1","OBJECT_ID":"2009-051E","EPOCH":"2026-04-26T17:08:40.189920","MEAN_MOTION":14.60360188,"ECCENTRICITY":0.0008454,"INCLINATION":98.4081,"RA_OF_ASC_NODE":22.691,"ARG_OF_PERICENTER":45.2034,"MEAN_ANOMALY":314.9852,"EPHEMERIS_TYPE":0,"CLASSIFICATION_TYPE":"U","NORAD_CAT_ID":35935,"ELEMENT_SET_NO":999,"REV_AT_EPOCH":88122,"BSTAR":0.0001966,"MEAN_MOTION_DOT":9.02e-6,"MEAN_MOTION_DDOT":0},{"OBJECT_NAME":"TISAT 1","OBJECT_ID":"2010-035E","EPOCH":"2026-04-26T19:12:51.419232","MEAN_MOTION":15.29721207,"ECCENTRICITY":0.000461,"INCLINATION":98.0678,"RA_OF_ASC_NODE":58.8848,"ARG_OF_PERICENTER":79.1302,"MEAN_ANOMALY":281.0455,"EPHEMERIS_TYPE":0,"CLASSIFICATION_TYPE":"U","NORAD_CAT_ID":36799,"ELEMENT_SET_NO":999,"REV_AT_EPOCH":85984,"BSTAR":0.00092327,"MEAN_MOTION_DOT":0.00026572,"MEAN_MOTION_DDOT":0},{"OBJECT_NAME":"AEROCUBE 4.5A","OBJECT_ID":"2012-048K","EPOCH":"2026-04-26T15:27:52.507872","MEAN_MOTION":15.73067408,"ECCENTRICITY":0.0025085,"INCLINATION":64.6325,"RA_OF_ASC_NODE":211.7963,"ARG_OF_PERICENTER":214.3094,"MEAN_ANOMALY":145.6438,"EPHEMERIS_TYPE":0,"CLASSIFICATION_TYPE":"U","NORAD_CAT_ID":38767,"ELEMENT_SET_NO":999,"REV_AT_EPOCH":36450,"BSTAR":0.0012004,"MEAN_MOTION_DOT":0.00171592,"MEAN_MOTION_DDOT":0},{"OBJECT_NAME":"STRAND-1","OBJECT_ID":"2013-009E","EPOCH":"2026-04-26T11:10:40.191744","MEAN_MOTION":14.37131572,"ECCENTRICITY":0.00092207,"INCLINATION":98.3914,"RA_OF_ASC_NODE":297.9758,"ARG_OF_PERICENTER":32.965,"MEAN_ANOMALY":327.211,"EPHEMERIS_TYPE":0,"CLASSIFICATION_TYPE":"U","NORAD_CAT_ID":39090,"ELEMENT_SET_NO":999,"REV_AT_EPOCH":68963,"BSTAR":0.00011755274,"MEAN_MOTION_DOT":3.07e-6,"MEAN_MOTION_DDOT":0},{"OBJECT_NAME":"BRITE-AUSTRIA","OBJECT_ID":"2013-009F","EPOCH":"2026-04-26T17:38:31.260192","MEAN_MOTION":14.3652077,"ECCENTRICITY":0.00109,"INCLINATION":98.3986,"RA_OF_ASC_NODE":297.447,"ARG_OF_PERICENTER":39.5143,"MEAN_ANOMALY":320.6837,"EPHEMERIS_TYPE":0,"CLASSIFICATION_TYPE":"U","NORAD_CAT_ID":39091,"ELEMENT_SET_NO":999,"REV_AT_EPOCH":68966,"BSTAR":8.2263e-5,"MEAN_MOTION_DOT":1.99e-6,"MEAN_MOTION_DDOT":0},{"OBJECT_NAME":"NEE-01 PEGASO","OBJECT_ID":"2013-018B","EPOCH":"2026-04-26T08:14:10.692384","MEAN_MOTION":14.934005,"ECCENTRICITY":0.00120062,"INCLINATION":98.115,"RA_OF_ASC_NODE":258.812,"ARG_OF_PERICENTER":340.5128,"MEAN_ANOMALY":19.563,"EPHEMERIS_TYPE":0,"CLASSIFICATION_TYPE":"U","NORAD_CAT_ID":39151,"ELEMENT_SET_NO":999,"REV_AT_EPOCH":70296,"BSTAR":0.00030015636,"MEAN_MOTION_DOT":3.094e-5,"MEAN_MOTION_DDOT":0},{"OBJECT_NAME":"POPACS 2","OBJECT_ID":"2013-055E","EPOCH":"2026-04-26T16:33:58.292064","MEAN_MOTION":14.89936142,"ECCENTRICITY":0.0421985,"INCLINATION":80.9936,"RA_OF_ASC_NODE":203.0851,"ARG_OF_PERICENTER":359.3703,"MEAN_ANOMALY":0.6918,"EPHEMERIS_TYPE":0,"CLASSIFICATION_TYPE":"U","NORAD_CAT_ID":39269,"ELEMENT_SET_NO":999,"REV_AT_EPOCH":65554,"BSTAR":0.00031275,"MEAN_MOTION_DOT":0.00018282,"MEAN_MOTION_DDOT":0},{"OBJECT_NAME":"POPACS 3","OBJECT_ID":"2013-055F","EPOCH":"2026-04-26T10:06:22.608864","MEAN_MOTION":14.54843912,"ECCENTRICITY":0.05555624,"INCLINATION":81.0001,"RA_OF_ASC_NODE":285.2683,"ARG_OF_PERICENTER":227.452,"MEAN_ANOMALY":127.8506,"EPHEMERIS_TYPE":0,"CLASSIFICATION_TYPE":"U","NORAD_CAT_ID":39270,"ELEMENT_SET_NO":999,"REV_AT_EPOCH":63102,"BSTAR":0.00026255959,"MEAN_MOTION_DOT":0.00010839,"MEAN_MOTION_DDOT":0},{"OBJECT_NAME":"ZACUBE-1 (TSHEPISOSAT)","OBJECT_ID":"2013-066B","EPOCH":"2026-04-26T21:01:14.492352","MEAN_MOTION":15.00754252,"ECCENTRICITY":0.0044121,"INCLINATION":97.812,"RA_OF_ASC_NODE":78.9374,"ARG_OF_PERICENTER":64.7219,"MEAN_ANOMALY":295.8566,"EPHEMERIS_TYPE":0,"CLASSIFICATION_TYPE":"U","NORAD_CAT_ID":39417,"ELEMENT_SET_NO":999,"REV_AT_EPOCH":67303,"BSTAR":0.00043768,"MEAN_MOTION_DOT":5.604e-5,"MEAN_MOTION_DDOT":0}]
